ONEWEB-0283             
1 49001U 21060AL  24150.13529820 -.00001031  00000+0 -27314-2 0  9990
2 49001  87.9118  17.9053 0001693 116.5432 243.5873 13.16598139142371
ONEWEB-0284             
1 49002U 21060AM  24149.67298699 -.00000423  00000+0 -11398-2 0  9994
2 49002  87.9118  17.9820 0002043  83.6922 276.4441 13.16593486140972
ONEWEB-0285             
1 49075U 21075A   24150.03102910  .00004766  00000+0  13202-1 0  9999
2 49075  87.8947 139.8198 0001951  88.7311 271.4041 13.12468917137926
ONEWEB-0286             
1 49076U 21075B   24150.00229854  .00002366  00000+0  65382-2 0  9995
2 49076  87.8940 139.8293 0001576  78.3646 281.7660 13.12458403137273
ONEWEB-0287             
1 49077U 21075C   24149.52532265  .00000039  00000+0  66096-4 0  9994
2 49077  87.9160 155.0816 0001955  77.2611 282.8739 13.17650113134904
ONEWEB-0288             
1 49078U 21075D   24149.98653685 -.00007268  00000+0 -20272-1 0  9991
2 49078  87.8927 139.8407 0002033  91.4676 268.6685 13.12378394137906
ONEWEB-0289             
1 49079U 21075E   24149.93348107  .00000029  00000+0  40893-4 0  9997
2 49079  87.9163 155.0278 0002118  93.1753 266.9621 13.17649581135537
ONEWEB-0290             
1 49080U 21075F   24150.06794432  .00000030  00000+0  44217-4 0  9997
2 49080  87.9161 154.9627 0002289  77.5799 282.5589 13.17650420135944
